[{"OBJECT_NAME":"ONEWEB-0161","OBJECT_ID":"2021-025M","EPOCH":"2026-02-23T04:58:26.776704","MEAN_MOTION":13.13471514,"ECCENTRICITY":0.00019461,"INCLINATION":87.9039,"RA_OF_ASC_NODE":342.8857,"ARG_OF_PERICENTER":78.6555,"MEAN_ANOMALY":281.4793,"EPHEMERIS_TYPE":0,"CLASSIFICATION_TYPE":"U","NORAD_CAT_ID":48053,"ELEMENT_SET_NO":999,"REV_AT_EPOCH":23854,"BSTAR":-0.00070728371,"MEAN_MOTION_DOT":-2.46e-6,"MEAN_MOTION_DDOT":0},{"OBJECT_NAME":"ONEWEB-0158","OBJECT_ID":"2021-025N","EPOCH":"2026-02-23T05:49:38.900640","MEAN_MOTION":13.13469032,"ECCENTRICITY":0.00014595,"INCLINATION":87.9047,"RA_OF_ASC_NODE":342.8678,"ARG_OF_PERICENTER":82.9937,"MEAN_ANOMALY":277.1358,"EPHEMERIS_TYPE":0,"CLASSIFICATION_TYPE":"U","NORAD_CAT_ID":48054,"ELEMENT_SET_NO":999,"REV_AT_EPOCH":23867,"BSTAR":0.00090252561,"MEAN_MOTION_DOT":3.42e-6,"MEAN_MOTION_DDOT":0},{"OBJECT_NAME":"ONEWEB-0157","OBJECT_ID":"2021-025P","EPOCH":"2026-02-23T04:36:30.325824","MEAN_MOTION":13.13467635,"ECCENTRICITY":0.00021843,"INCLINATION":87.905,"RA_OF_ASC_NODE":342.8829,"ARG_OF_PERICENTER":83.127,"MEAN_ANOMALY":277.0108,"EPHEMERIS_TYPE":0,"CLASSIFICATION_TYPE":"U","NORAD_CAT_ID":48055,"ELEMENT_SET_NO":999,"REV_AT_EPOCH":23860,"BSTAR":4.9049725e-5,"MEAN_MOTION_DOT":3.1e-7,"MEAN_MOTION_DDOT":0},{"OBJECT_NAME":"ONEWEB-0162","OBJECT_ID":"2021-025Q","EPOCH":"2026-02-23T05:51:53.862624","MEAN_MOTION":13.13470851,"ECCENTRICITY":0.0001866,"INCLINATION":87.9049,"RA_OF_ASC_NODE":342.8766,"ARG_OF_PERICENTER":73.6676,"MEAN_ANOMALY":286.4658,"EPHEMERIS_TYPE":0,"CLASSIFICATION_TYPE":"U","NORAD_CAT_ID":48056,"ELEMENT_SET_NO":999,"REV_AT_EPOCH":23858,"BSTAR":0.0012521982,"MEAN_MOTION_DOT":4.7e-6,"MEAN_MOTION_DDOT":0},{"OBJECT_NAME":"ONEWEB-0155","OBJECT_ID":"2021-025R","EPOCH":"2026-02-23T06:01:49.613088","MEAN_MOTION":13.13471422,"ECCENTRICITY":0.00018854,"INCLINATION":87.904,"RA_OF_ASC_NODE":342.8756,"ARG_OF_PERICENTER":84.3761,"MEAN_ANOMALY":275.7583,"EPHEMERIS_TYPE":0,"CLASSIFICATION_TYPE":"U","NORAD_CAT_ID":48057,"ELEMENT_SET_NO":999,"REV_AT_EPOCH":23872,"BSTAR":0.0013656438,"MEAN_MOTION_DOT":5.11e-6,"MEAN_MOTION_DDOT":0},{"OBJECT_NAME":"ONEWEB-0149","OBJECT_ID":"2021-025S","EPOCH":"2026-02-23T04:43:48.966528","MEAN_MOTION":13.13468,"ECCENTRICITY":0.00018819,"INCLINATION":87.9051,"RA_OF_ASC_NODE":342.8823,"ARG_OF_PERICENTER":72.8143,"MEAN_ANOMALY":287.3192,"EPHEMERIS_TYPE":0,"CLASSIFICATION_TYPE":"U","NORAD_CAT_ID":48058,"ELEMENT_SET_NO":999,"REV_AT_EPOCH":23852,"BSTAR":-0.00032874681,"MEAN_MOTION_DOT":-1.07e-6,"MEAN_MOTION_DDOT":0},{"OBJECT_NAME":"ONEWEB-0148","OBJECT_ID":"2021-025T","EPOCH":"2026-02-23T02:00:30.912768","MEAN_MOTION":13.13470346,"ECCENTRICITY":0.00021984,"INCLINATION":87.9039,"RA_OF_ASC_NODE":342.9199,"ARG_OF_PERICENTER":66.2503,"MEAN_ANOMALY":293.8857,"EPHEMERIS_TYPE":0,"CLASSIFICATION_TYPE":"U","NORAD_CAT_ID":48059,"ELEMENT_SET_NO":999,"REV_AT_EPOCH":23863,"BSTAR":0.00069851163,"MEAN_MOTION_DOT":2.68e-6,"MEAN_MOTION_DDOT":0},{"OBJECT_NAME":"ONEWEB-0160","OBJECT_ID":"2021-025U","EPOCH":"2026-02-23T00:35:10.688064","MEAN_MOTION":13.13468491,"ECCENTRICITY":0.00010307,"INCLINATION":87.904,"RA_OF_ASC_NODE":342.9287,"ARG_OF_PERICENTER":72.3046,"MEAN_ANOMALY":287.8196,"EPHEMERIS_TYPE":0,"CLASSIFICATION_TYPE":"U","NORAD_CAT_ID":48060,"ELEMENT_SET_NO":999,"REV_AT_EPOCH":23857,"BSTAR":0.00096182056,"MEAN_MOTION_DOT":3.64e-6,"MEAN_MOTION_DDOT":0},{"OBJECT_NAME":"ONEWEB-0163","OBJECT_ID":"2021-025V","EPOCH":"2026-02-23T05:42:20.002464","MEAN_MOTION":13.1347158,"ECCENTRICITY":0.0002048,"INCLINATION":87.9044,"RA_OF_ASC_NODE":342.877,"ARG_OF_PERICENTER":83.0741,"MEAN_ANOMALY":277.0621,"EPHEMERIS_TYPE":0,"CLASSIFICATION_TYPE":"U","NORAD_CAT_ID":48061,"ELEMENT_SET_NO":999,"REV_AT_EPOCH":23872,"BSTAR":0.00088095101,"MEAN_MOTION_DOT":3.34e-6,"MEAN_MOTION_DDOT":0},{"OBJECT_NAME":"ONEWEB-0159","OBJECT_ID":"2021-025W","EPOCH":"2026-02-23T05:30:07.353792","MEAN_MOTION":13.1347027,"ECCENTRICITY":0.00020179,"INCLINATION":87.905,"RA_OF_ASC_NODE":342.8649,"ARG_OF_PERICENTER":77.6923,"MEAN_ANOMALY":282.4432,"EPHEMERIS_TYPE":0,"CLASSIFICATION_TYPE":"U","NORAD_CAT_ID":48062,"ELEMENT_SET_NO":999,"REV_AT_EPOCH":23864,"BSTAR":-0.00051563415,"MEAN_MOTION_DOT":-1.76e-6,"MEAN_MOTION_DDOT":0},{"OBJECT_NAME":"ONEWEB-0164","OBJECT_ID":"2021-025X","EPOCH":"2026-02-23T05:03:18.743040","MEAN_MOTION":13.1347122,"ECCENTRICITY":0.00017013,"INCLINATION":87.9051,"RA_OF_ASC_NODE":342.8751,"ARG_OF_PERICENTER":79.1097,"MEAN_ANOMALY":281.0223,"EPHEMERIS_TYPE":0,"CLASSIFICATION_TYPE":"U","NORAD_CAT_ID":48063,"ELEMENT_SET_NO":999,"REV_AT_EPOCH":23862,"BSTAR":-0.00062874417,"MEAN_MOTION_DOT":-2.17e-6,"MEAN_MOTION_DDOT":0},{"OBJECT_NAME":"ONEWEB-0167","OBJECT_ID":"2021-025Y","EPOCH":"2026-02-23T05:43:33.609216","MEAN_MOTION":13.13470221,"ECCENTRICITY":0.00021122,"INCLINATION":87.9042,"RA_OF_ASC_NODE":342.8901,"ARG_OF_PERICENTER":96.4298,"MEAN_ANOMALY":263.7072,"EPHEMERIS_TYPE":0,"CLASSIFICATION_TYPE":"U","NORAD_CAT_ID":48064,"ELEMENT_SET_NO":999,"REV_AT_EPOCH":23861,"BSTAR":0.00080424617,"MEAN_MOTION_DOT":3.06e-6,"MEAN_MOTION_DDOT":0},{"OBJECT_NAME":"ONEWEB-0166","OBJECT_ID":"2021-025Z","EPOCH":"2026-02-23T04:26:45.442752","MEAN_MOTION":13.13467747,"ECCENTRICITY":0.00019449,"INCLINATION":87.9051,"RA_OF_ASC_NODE":342.8627,"ARG_OF_PERICENTER":75.5449,"MEAN_ANOMALY":284.5896,"EPHEMERIS_TYPE":0,"CLASSIFICATION_TYPE":"U","NORAD_CAT_ID":48065,"ELEMENT_SET_NO":999,"REV_AT_EPOCH":23868,"BSTAR":0.00053189047,"MEAN_MOTION_DOT":2.07e-6,"MEAN_MOTION_DDOT":0},{"OBJECT_NAME":"ONEWEB-0151","OBJECT_ID":"2021-025AA","EPOCH":"2026-02-23T04:29:11.788800","MEAN_MOTION":13.13471319,"ECCENTRICITY":0.0001764,"INCLINATION":87.9046,"RA_OF_ASC_NODE":342.8889,"ARG_OF_PERICENTER":83.8192,"MEAN_ANOMALY":276.3138,"EPHEMERIS_TYPE":0,"CLASSIFICATION_TYPE":"U","NORAD_CAT_ID":48066,"ELEMENT_SET_NO":999,"REV_AT_EPOCH":23862,"BSTAR":0.00030056577,"MEAN_MOTION_DOT":1.23e-6,"MEAN_MOTION_DDOT":0},{"OBJECT_NAME":"ONEWEB-0170","OBJECT_ID":"2021-025AB","EPOCH":"2026-02-23T04:41:22.666272","MEAN_MOTION":13.13468032,"ECCENTRICITY":0.00014548,"INCLINATION":87.9044,"RA_OF_ASC_NODE":342.8892,"ARG_OF_PERICENTER":90.4203,"MEAN_ANOMALY":269.7093,"EPHEMERIS_TYPE":0,"CLASSIFICATION_TYPE":"U","NORAD_CAT_ID":48067,"ELEMENT_SET_NO":999,"REV_AT_EPOCH":23858,"BSTAR":-0.00023452143,"MEAN_MOTION_DOT":-7.3e-7,"MEAN_MOTION_DDOT":0},{"OBJECT_NAME":"ONEWEB-0168","OBJECT_ID":"2021-025AC","EPOCH":"2026-02-23T06:09:08.607168","MEAN_MOTION":13.13468583,"ECCENTRICITY":0.00019712,"INCLINATION":87.9049,"RA_OF_ASC_NODE":342.8672,"ARG_OF_PERICENTER":80.1058,"MEAN_ANOMALY":280.0294,"EPHEMERIS_TYPE":0,"CLASSIFICATION_TYPE":"U","NORAD_CAT_ID":48068,"ELEMENT_SET_NO":999,"REV_AT_EPOCH":23860,"BSTAR":0.00091154877,"MEAN_MOTION_DOT":3.46e-6,"MEAN_MOTION_DDOT":0}]
