ONEWEB-0161             
1 48053U 21025M   26054.20725436 -.00000246  00000+0 -70728-3 0  9996
2 48053  87.9039 342.8857 0001946  78.6555 281.4793 13.13471514238547
ONEWEB-0158             
1 48054U 21025N   26054.24281135  .00000342  00000+0  90253-3 0  9994
2 48054  87.9047 342.8678 0001459  82.9937 277.1358 13.13469032238674
ONEWEB-0157             
1 48055U 21025P   26054.19201766  .00000031  00000+0  49050-4 0  9996
2 48055  87.9050 342.8829 0002184  83.1270 277.0108 13.13467635238608
ONEWEB-0162             
1 48056U 21025Q   26054.24437341  .00000470  00000+0  12522-2 0  9992
2 48056  87.9049 342.8766 0001866  73.6676 286.4658 13.13470851238582
ONEWEB-0155             
1 48057U 21025R   26054.25126867  .00000511  00000+0  13656-2 0  9997
2 48057  87.9040 342.8756 0001885  84.3761 275.7583 13.13471422238727
ONEWEB-0149             
1 48058U 21025S   26054.19709452 -.00000107  00000+0 -32875-3 0  9996
2 48058  87.9051 342.8823 0001881  72.8143 287.3192 13.13468000238528
ONEWEB-0148             
1 48059U 21025T   26054.08369112  .00000268  00000+0  69851-3 0  9990
2 48059  87.9039 342.9199 0002198  66.2503 293.8857 13.13470346238639
ONEWEB-0160             
1 48060U 21025U   26054.02442926  .00000364  00000+0  96182-3 0  9995
2 48060  87.9040 342.9287 0001030  72.3046 287.8196 13.13468491238575
ONEWEB-0163             
1 48061U 21025V   26054.23773151  .00000334  00000+0  88095-3 0  9997
2 48061  87.9044 342.8770 0002048  83.0741 277.0621 13.13471580238721
ONEWEB-0159             
1 48062U 21025W   26054.22925178 -.00000176  00000+0 -51563-3 0  9991
2 48062  87.9050 342.8649 0002017  77.6923 282.4432 13.13470270238647
ONEWEB-0164             
1 48063U 21025X   26054.21063360 -.00000217  00000+0 -62874-3 0  9990
2 48063  87.9051 342.8751 0001701  79.1097 281.0223 13.13471220238628
ONEWEB-0167             
1 48064U 21025Y   26054.23858344  .00000306  00000+0  80425-3 0  9996
2 48064  87.9042 342.8901 0002112  96.4298 263.7072 13.13470221238616
ONEWEB-0166             
1 48065U 21025Z   26054.18524818  .00000207  00000+0  53189-3 0  9994
2 48065  87.9051 342.8627 0001944  75.5449 284.5896 13.13467747238681
ONEWEB-0151             
1 48066U 21025AA  26054.18694200  .00000123  00000+0  30057-3 0  9994
2 48066  87.9046 342.8889 0001764  83.8192 276.3138 13.13471319238625
ONEWEB-0170             
1 48067U 21025AB  26054.19540123 -.00000073  00000+0 -23452-3 0  9997
2 48067  87.9044 342.8892 0001454  90.4203 269.7093 13.13468032238580
ONEWEB-0168             
1 48068U 21025AC  26054.25634962  .00000346  00000+0  91155-3 0  9996
2 48068  87.9049 342.8672 0001971  80.1058 280.0294 13.13468583238603
